ENVISAT                 
1 27386U 02009A   26140.38760816  .00000051  00000+0  30347-4 0  9995
2 27386  98.3822  92.3288 0001244  92.4060  72.2038 14.39057372269486
